NORAD_CAT_ID,OBJECT_NAME,OBJECT_TYPE,EPOCH,MEAN_MOTION,ECCENTRICITY,INCLINATION,RA_OF_ASC_NODE,ARG_OF_PERICENTER,MEAN_ANOMALY,BSTAR,MEAN_MOTION_DOT,MEAN_MOTION_DDOT,TLE_LINE0,TLE_LINE1,TLE_LINE2,SEMIMAJOR_AXIS,PERIOD,APOGEE,PERIGEE,DECAYED
53269.0,STARLINK-4057,PAYLOAD,2022-07-28 20:00:01,15.89727741,0.0041182,53.2175,22.4196,52.9693,339.7836,-0.0040481,-0.01319377,0.00049543,0 STARLINK-4057,1 53269U 22086AD  22209.83334491 -.01319377  49543-3 -40481-2 0  9993,2 53269  53.2175  22.4196 0041182  52.9693 339.7836 15.89727741  1308,6681.183000000001,90.582,330.5619999999999,275.533,0.0
53269.0,STARLINK-4057,PAYLOAD,2022-07-29 06:00:00,15.88664901,0.0036482,53.2177,20.3066,55.2075,202.7092,-0.0045996,-0.01394771,0.00054283,0 STARLINK-4057,1 53269U 22086AD  22210.25001157 -.01394771  54283-3 -45996-2 0  9995,2 53269  53.2177  20.3066 0036482  55.2075 202.7092 15.88664901  1366,6684.1619999999975,90.642,330.412,281.642,0.0
53269.0,STARLINK-4057,PAYLOAD,2022-07-29 14:00:01,15.87762584,0.0032851,53.2177,18.6204,54.9875,309.8887,-0.0046952,-0.0134543,0.0005041,0 STARLINK-4057,1 53269U 22086AD  22210.58334491 -.01345430  50410-3 -46952-2 0  9990,2 53269  53.2177  18.6204 0032851  54.9875 309.8887 15.87762584  1300,6686.694,90.694,330.526,286.593,0.0
53269.0,STARLINK-4057,PAYLOAD,2022-07-29 22:00:00,15.86865283,0.0029157,53.2173,16.9379,56.1023,54.6748,-0.0048161,-0.01306824,0.00047415,0 STARLINK-4057,1 53269U 22086AD  22210.91667824 -.01306824  47415-3 -48161-2 0  9995,2 53269  53.2173  16.9379 0029157  56.1023  54.6748 15.86865283  1472,6689.215,90.745,330.583,291.576,0.0
53269.0,STARLINK-4057,PAYLOAD,2022-07-30 06:00:00,15.86020913,0.0026339,53.2175,15.2536,56.1067,159.4993,-0.0053351,-0.01378446,0.00051861,0 STARLINK-4057,1 53269U 22086AD  22211.25001157 -.01378446  51861-3 -53351-2 0  9990,2 53269  53.2175  15.2536 0026339  56.1067 159.4993 15.86020913  1523,6691.589,90.793,331.079,295.829,0.0
53269.0,STARLINK-4057,PAYLOAD,2022-07-30 14:00:01,15.85142323,0.0023011999999999,53.2177,13.5741,55.1732,264.2159,-0.005611,-0.01217402,0.0,0 STARLINK-4057,1 53269U 22086AD  22211.58334491 -.01217402  00000-0 -56110-2 0  9992,2 53269  53.2177  13.5741 0023012  55.1732 264.2159 15.85142323  1301,6694.061,90.844,331.33,300.522,0.0
53269.0,STARLINK-4057,PAYLOAD,2022-07-30 22:00:00,15.84232667,0.0019569,53.2174,11.8977,55.8382,6.2878,-0.0056156,-0.01163493,0.0,0 STARLINK-4057,1 53269U 22086AD  22211.91667824 -.01163493  00000-0 -56156-2 0  9998,2 53269  53.2174  11.8977 0019569  55.8382   6.2878 15.84232667  1638,6696.623000000001,90.896,331.593,305.384,0.0
53269.0,STARLINK-4057,PAYLOAD,2022-07-31 14:00:01,15.82513082,0.0013282,53.2175,8.5475,51.9752,212.4249,-0.006522,-0.01245353,0.0,0 STARLINK-4057,1 53269U 22086AD  22212.58334491 -.01245353  00000-0 -65220-2 0  9991,2 53269  53.2175   8.5475 0013282  51.9752 212.4249 15.82513082  1734,6701.473000000001,90.995,332.2390000000001,314.438,0.0
53269.0,STARLINK-4057,PAYLOAD,2022-07-31 22:00:00,15.8161414,0.0009407,53.2171,6.8775,48.7304,315.2348,-0.0066152,-0.01208921,0.0,0 STARLINK-4057,1 53269U 22086AD  22212.91667824 -.01208921  00000-0 -66152-2 0  9992,2 53269  53.2171   6.8775 0009407  48.7304 315.2348 15.81614140  1306,6704.012,91.046,332.184,319.571,0.0
53269.0,STARLINK-4057,PAYLOAD,2022-08-01 04:00:00,15.80961734,0.0006827,53.2175,5.6237,42.0779,305.8628,-0.0069063999999999,-0.01219581,0.0,0 STARLINK-4057,1 53269U 22086AD  22213.16667824 -.01219581  00000-0 -69064-2 0  9999,2 53269  53.2175   5.6237 0006827  42.0779 305.8628 15.80961734  1822,6705.857,91.084,332.3,323.144,0.0
53269.0,STARLINK-4057,PAYLOAD,2022-08-01 14:00:01,15.79862682,0.0004796999999999,53.2177,3.5402,28.906,171.0076,-0.0072521,-0.01215353,0.0,0 STARLINK-4057,1 53269U 22086AD  22213.58334491 -.01215353  00000-0 -72521-2 0  9991,2 53269  53.2177   3.5402 0004797  28.9060 171.0076 15.79862682  1308,6708.965999999999,91.147,334.05,327.613,0.0
53269.0,STARLINK-4057,PAYLOAD,2022-08-01 22:00:00,15.78984351,0.0003288999999999,53.2172,1.8764,10.0254,286.278,-0.0075528999999999,-0.01214502,0.0,0 STARLINK-4057,1 53269U 22086AD  22213.91667824 -.01214502  00000-0 -75529-2 0  9993,2 53269  53.2172   1.8764 0003289  10.0254 286.2780 15.78984351  1945,6711.454000000002,91.198,335.526,331.112,0.0
53269.0,STARLINK-4057,PAYLOAD,2022-08-02 14:00:01,15.77221077,0.0003476,53.2173,358.5525,6.0932,119.8264,-0.0081131,-0.01205541,0.0,0 STARLINK-4057,1 53269U 22086AD  22214.58334491 -.01205541  00000-0 -81131-2 0  9997,2 53269  53.2173 358.5525 0003476   6.0932 119.8264 15.77221077  1305,6716.455,91.3,340.655,335.986,0.0
53269.0,STARLINK-4057,PAYLOAD,2022-08-03 06:00:00,15.75457746,0.0003652,53.2174,355.2367,342.5239,328.7876,-0.0086956,-0.01195728,0.0,0 STARLINK-4057,1 53269U 22086AD  22215.25001157 -.01195728  00000-0 -86956-2 0  9997,2 53269  53.2174 355.2367 0003652 342.5239 328.7876 15.75457746  2154,6721.465999999999,91.402,345.786,340.876,0.0
53269.0,STARLINK-4057,PAYLOAD,2022-08-03 14:00:01,15.74583728,0.000399,53.2177,353.5842,331.9806,70.4371,-0.0090647,-0.01199215,0.0,0 STARLINK-4057,1 53269U 22086AD  22215.58334491 -.01199215  00000-0 -90647-2 0  9990,2 53269  53.2177 353.5842 0003990 331.9806  70.4371 15.74583728  1309,6723.953,91.453,348.501,343.135,0.0
53269.0,STARLINK-4057,PAYLOAD,2022-08-03 22:00:01,15.73585114,0.0001079,53.2172,351.9328,197.3748,295.1746,-0.0037372,-0.00503164,0.0,0 STARLINK-4057,1 53269U 22086AD  22215.91668981 -.00503164  00000-0 -37372-2 0  9998,2 53269  53.2172 351.9328 0001079 197.3748 295.1746 15.73585114  2268,6726.797,91.511,349.38800000000015,347.93699999999984,0.0
53269.0,STARLINK-4057,PAYLOAD,2022-08-04 06:00:00,15.73203394,5.59e-05,53.2172,350.2809,313.7686,267.8842,1.2094e-05,1.079e-05,0.0,0 STARLINK-4057,1 53269U 22086AD  22216.25001157  .00001079  00000-0  12094-4 0  9994,2 53269  53.2172 350.2809 0000559 313.7686 267.8842 15.73203394  2317,6727.885,91.533,350.12699999999984,349.374,0.0
53269.0,STARLINK-4057,PAYLOAD,2022-08-04 14:00:01,15.73203455,6.159999999999999e-05,53.2173,348.6329,325.6613,344.9247,1.2824e-05,1.182e-05,0.0,0 STARLINK-4057,1 53269U 22086AD  22216.58334491  .00001182  00000-0  12824-4 0  9996,2 53269  53.2173 348.6329 0000616 325.6613 344.9247 15.73203455  1304,6727.885,91.533,350.165,349.336,0.0
53269.0,STARLINK-4057,PAYLOAD,2022-08-04 20:00:01,15.73218553,6.850000000000001e-05,53.2197,347.4003,332.4654,314.6643,0.0005611,0.00078932,0.0,0 STARLINK-4057,1 53269U 22086AD  22216.83334491  .00078932  00000-0  56110-3 0  9996,2 53269  53.2197 347.4003 0000685 332.4654 314.6643 15.73218553  2404,6727.842,91.532,350.168,349.246,0.0
53269.0,STARLINK-4057,PAYLOAD,2022-08-04 22:00:00,15.73250175,6.82e-05,53.2195,346.9874,334.1244,65.2409,0.00022049,0.00030503,0.0,0 STARLINK-4057,1 53269U 22086AD  22216.91667824  .00030503  00000-0  22049-3 0  9990,2 53269  53.2195 346.9874 0000682 334.1244  65.2409 15.73250175  1306,6727.752,91.53,350.076,349.158,0.0
53269.0,STARLINK-4057,PAYLOAD,2022-08-05 04:00:00,15.73263386,4.96e-05,53.2199,345.7487,333.3924,42.7217,3.118e-05,3.771e-05,0.0,0 STARLINK-4057,1 53269U 22086AD  22217.16667824  .00003771  00000-0  31180-4 0  9992,2 53269  53.2199 345.7487 0000496 333.3924  42.7217 15.73263386  2469,6727.714,91.529,349.913,349.246,0.0
53269.0,STARLINK-4057,PAYLOAD,2022-08-05 12:00:00,15.73277324,5.73e-05,53.2199,344.0999,9.0244,96.0959,-0.00069796,-0.00097757,0.0,0 STARLINK-4057,1 53269U 22086AD  22217.50001157 -.00097757  00000-0 -69796-3 0  9993,2 53269  53.2199 344.0999 0000573   9.0244  96.0959 15.73277324  2515,6727.675,91.529,349.925,349.154,0.0
53269.0,STARLINK-4057,PAYLOAD,2022-08-05 14:00:01,15.73262148,6.82e-05,53.2197,343.68800000000016,13.0485,204.3896,-0.00072182,-0.00100975,0.0,0 STARLINK-4057,1 53269U 22086AD  22217.58335648 -.00100975  00000-0 -72182-3 0  9996,2 53269  53.2197 343.6880 0000682  13.0485 204.3896 15.73262148  1308,6727.718000000003,91.53,350.042,349.124,0.0
53269.0,STARLINK-4057,PAYLOAD,2022-08-05 22:00:00,15.73200762,8.31e-05,53.2191,342.0385,17.262999999999998,289.0895,0.00013515,0.0001839,0.0,0 STARLINK-4057,1 53269U 22086AD  22217.91667824  .00018390  00000-0  13515-3 0  9999,2 53269  53.2191 342.0385 0000831  17.2630 289.0895 15.73200762  1302,6727.893,91.533,350.31699999999995,349.199,0.0
53269.0,STARLINK-4057,PAYLOAD,2022-08-06 14:00:01,15.7325647,9.04e-05,53.2193,338.7396,28.362,95.8844,-0.00063108,-0.0008847,0.0,0 STARLINK-4057,1 53269U 22086AD  22218.58334491 -.00088470  00000-0 -63108-3 0  9995,2 53269  53.2193 338.7396 0000904  28.3620  95.8844 15.73256470  1305,6727.734,91.53,350.207,348.991,0.0
53269.0,STARLINK-4057,PAYLOAD,2022-08-06 21:05:51,15.73248225,4.4e-05,53.2199,337.275,26.5316,333.5726,0.00018312,0.0002521,0.0,0 STARLINK-4057,1 53269U 22086AD  22218.87907111  .00025210  00000-0  18312-3 0  9990,2 53269  53.2199 337.2750 0000440  26.5316 333.5726 15.73248225  2914,6727.7580000000025,91.53,349.9190000000001,349.327,0.0
53269.0,STARLINK-4057,PAYLOAD,2022-08-06 22:00:00,15.73232408,0.0001036999999999,53.2194,337.0902,31.1756,182.019,-0.00022257,-0.0003177999999999,0.0,0 STARLINK-4057,1 53269U 22086AD  22218.91667824 -.00031780  00000-0 -22257-3 0  9993,2 53269  53.2194 337.0902 0001037  31.1756 182.0190 15.73232408  2737,6727.803000000001,91.531,350.365,348.97,0.0
53269.0,STARLINK-4057,PAYLOAD,2022-08-07 04:43:15,15.73234205,7.7e-05,53.22,335.7033,26.7484,333.3576,0.00012222,0.00016592,0.0,0 STARLINK-4057,1 53269U 22086AD  22219.19671040  .00016592  00000-0  12222-3 0  9992,2 53269  53.2200 335.7033 0000770  26.7484 333.3576 15.73234205  2776,6727.7980000000025,91.531,350.181,349.145,0.0
53269.0,STARLINK-4057,PAYLOAD,2022-08-07 12:20:39,15.73255129,9.44e-05,53.2199,334.1314,25.2435,334.8631,0.00029132,0.00040558,0.0,0 STARLINK-4057,1 53269U 22086AD  22219.51434378  .00040558  00000-0  29132-3 0  9996,2 53269  53.2199 334.1314 0000944  25.2435 334.8631 15.73255129  3015,6727.738,91.53,350.23800000000006,348.968,0.0
